GLOBAL-2                
1 43812U 18099BG  26068.69955396  .00003970  00000+0  26145-3 0  9998
2 43812  97.3697 109.3280 0007454 127.1924 232.9986 15.08046936396919
STARLINK-5436           
1 54795U 22175AP  26068.30342702 -.00000188  00000+0  62833-5 0  9994
2 54795  53.2191  30.6846 0001401  94.3591 265.7561 15.08836518180070
